[{"OBJECT_NAME":"ONEWEB-0572","OBJECT_ID":"2023-004M","EPOCH":"2025-08-11T22:15:41.373216","MEAN_MOTION":13.17648494,"ECCENTRICITY":0.000149,"INCLINATION":87.9029,"RA_OF_ASC_NODE":67.4092,"ARG_OF_PERICENTER":87.6623,"MEAN_ANOMALY":272.4679,"EPHEMERIS_TYPE":0,"CLASSIFICATION_TYPE":"U","NORAD_CAT_ID":55151,"ELEMENT_SET_NO":999,"REV_AT_EPOCH":12675,"BSTAR":-0.0012505,"MEAN_MOTION_DOT":-4.73e-6,"MEAN_MOTION_DDOT":0},{"OBJECT_NAME":"ONEWEB-0573","OBJECT_ID":"2023-004N","EPOCH":"2025-08-11T22:01:19.420032","MEAN_MOTION":13.18687044,"ECCENTRICITY":9.37e-5,"INCLINATION":87.9115,"RA_OF_ASC_NODE":36.9369,"ARG_OF_PERICENTER":100.2962,"MEAN_ANOMALY":259.8276,"EPHEMERIS_TYPE":0,"CLASSIFICATION_TYPE":"U","NORAD_CAT_ID":55152,"ELEMENT_SET_NO":999,"REV_AT_EPOCH":12893,"BSTAR":-1.7925e-5,"MEAN_MOTION_DOT":6.0e-8,"MEAN_MOTION_DDOT":0},{"OBJECT_NAME":"ONEWEB-0588","OBJECT_ID":"2023-004P","EPOCH":"2025-08-11T21:51:49.778784","MEAN_MOTION":13.18686669,"ECCENTRICITY":0.0001447,"INCLINATION":87.9122,"RA_OF_ASC_NODE":36.9229,"ARG_OF_PERICENTER":103.5485,"MEAN_ANOMALY":256.5808,"EPHEMERIS_TYPE":0,"CLASSIFICATION_TYPE":"U","NORAD_CAT_ID":55153,"ELEMENT_SET_NO":999,"REV_AT_EPOCH":12893,"BSTAR":-8.4133e-6,"MEAN_MOTION_DOT":1.0e-7,"MEAN_MOTION_DDOT":0},{"OBJECT_NAME":"ONEWEB-0598","OBJECT_ID":"2023-004Q","EPOCH":"2025-08-12T01:58:07.855968","MEAN_MOTION":13.11414387,"ECCENTRICITY":0.0001386,"INCLINATION":87.8787,"RA_OF_ASC_NODE":82.6869,"ARG_OF_PERICENTER":62.8885,"MEAN_ANOMALY":297.2384,"EPHEMERIS_TYPE":0,"CLASSIFICATION_TYPE":"U","NORAD_CAT_ID":55154,"ELEMENT_SET_NO":999,"REV_AT_EPOCH":12539,"BSTAR":-0.0003238,"MEAN_MOTION_DOT":-1.02e-6,"MEAN_MOTION_DDOT":0},{"OBJECT_NAME":"ONEWEB-0599","OBJECT_ID":"2023-004R","EPOCH":"2025-08-11T21:19:48.534816","MEAN_MOTION":13.17650556,"ECCENTRICITY":0.0001765,"INCLINATION":87.9032,"RA_OF_ASC_NODE":67.4213,"ARG_OF_PERICENTER":79.2925,"MEAN_ANOMALY":280.8405,"EPHEMERIS_TYPE":0,"CLASSIFICATION_TYPE":"U","NORAD_CAT_ID":55155,"ELEMENT_SET_NO":999,"REV_AT_EPOCH":12675,"BSTAR":-6.5005e-5,"MEAN_MOTION_DOT":-1.2e-7,"MEAN_MOTION_DDOT":0},{"OBJECT_NAME":"ONEWEB-0614","OBJECT_ID":"2023-004S","EPOCH":"2025-08-11T20:21:12.704544","MEAN_MOTION":13.11413945,"ECCENTRICITY":0.0001732,"INCLINATION":87.879,"RA_OF_ASC_NODE":82.7435,"ARG_OF_PERICENTER":93.9216,"MEAN_ANOMALY":266.211,"EPHEMERIS_TYPE":0,"CLASSIFICATION_TYPE":"U","NORAD_CAT_ID":55156,"ELEMENT_SET_NO":999,"REV_AT_EPOCH":12529,"BSTAR":0.00011664,"MEAN_MOTION_DOT":5.4e-7,"MEAN_MOTION_DDOT":0},{"OBJECT_NAME":"ONEWEB-0616","OBJECT_ID":"2023-004T","EPOCH":"2025-08-11T22:20:34.094688","MEAN_MOTION":13.17647672,"ECCENTRICITY":0.0002591,"INCLINATION":87.9034,"RA_OF_ASC_NODE":67.4037,"ARG_OF_PERICENTER":68.8129,"MEAN_ANOMALY":291.328,"EPHEMERIS_TYPE":0,"CLASSIFICATION_TYPE":"U","NORAD_CAT_ID":55157,"ELEMENT_SET_NO":999,"REV_AT_EPOCH":12697,"BSTAR":-0.00021395,"MEAN_MOTION_DOT":-7.0e-7,"MEAN_MOTION_DDOT":0},{"OBJECT_NAME":"ONEWEB-0617","OBJECT_ID":"2023-004U","EPOCH":"2025-08-11T20:04:07.708512","MEAN_MOTION":13.1141508,"ECCENTRICITY":0.0001495,"INCLINATION":87.8787,"RA_OF_ASC_NODE":82.7244,"ARG_OF_PERICENTER":92.4304,"MEAN_ANOMALY":267.6995,"EPHEMERIS_TYPE":0,"CLASSIFICATION_TYPE":"U","NORAD_CAT_ID":55158,"ELEMENT_SET_NO":999,"REV_AT_EPOCH":12531,"BSTAR":0.0014102,"MEAN_MOTION_DOT":5.13e-6,"MEAN_MOTION_DDOT":0},{"OBJECT_NAME":"ONEWEB-0618","OBJECT_ID":"2023-004V","EPOCH":"2025-08-11T17:50:30.548832","MEAN_MOTION":14.67962537,"ECCENTRICITY":0.0014333,"INCLINATION":86.9103,"RA_OF_ASC_NODE":301.88,"ARG_OF_PERICENTER":3.1388,"MEAN_ANOMALY":356.9914,"EPHEMERIS_TYPE":0,"CLASSIFICATION_TYPE":"U","NORAD_CAT_ID":55159,"ELEMENT_SET_NO":999,"REV_AT_EPOCH":13571,"BSTAR":0.00025244,"MEAN_MOTION_DOT":1.47e-5,"MEAN_MOTION_DDOT":0},{"OBJECT_NAME":"ONEWEB-0619","OBJECT_ID":"2023-004W","EPOCH":"2025-08-12T00:56:04.504992","MEAN_MOTION":13.17649972,"ECCENTRICITY":0.0002226,"INCLINATION":87.9028,"RA_OF_ASC_NODE":67.3577,"ARG_OF_PERICENTER":93.6722,"MEAN_ANOMALY":266.4664,"EPHEMERIS_TYPE":0,"CLASSIFICATION_TYPE":"U","NORAD_CAT_ID":55160,"ELEMENT_SET_NO":999,"REV_AT_EPOCH":12688,"BSTAR":8.6859e-5,"MEAN_MOTION_DOT":4.7e-7,"MEAN_MOTION_DDOT":0},{"OBJECT_NAME":"ONEWEB-0620","OBJECT_ID":"2023-004X","EPOCH":"2025-08-11T21:46:40.459872","MEAN_MOTION":13.11416012,"ECCENTRICITY":0.0001494,"INCLINATION":87.879,"RA_OF_ASC_NODE":82.7316,"ARG_OF_PERICENTER":80.5903,"MEAN_ANOMALY":279.5394,"EPHEMERIS_TYPE":0,"CLASSIFICATION_TYPE":"U","NORAD_CAT_ID":55161,"ELEMENT_SET_NO":999,"REV_AT_EPOCH":12529,"BSTAR":0.0014538,"MEAN_MOTION_DOT":5.28e-6,"MEAN_MOTION_DDOT":0},{"OBJECT_NAME":"ONEWEB-0621","OBJECT_ID":"2023-004Y","EPOCH":"2025-08-12T02:05:27.766752","MEAN_MOTION":13.11415103,"ECCENTRICITY":0.0001863,"INCLINATION":87.8795,"RA_OF_ASC_NODE":82.6525,"ARG_OF_PERICENTER":89.4617,"MEAN_ANOMALY":270.6725,"EPHEMERIS_TYPE":0,"CLASSIFICATION_TYPE":"U","NORAD_CAT_ID":55162,"ELEMENT_SET_NO":999,"REV_AT_EPOCH":12532,"BSTAR":-0.00088564,"MEAN_MOTION_DOT":-3.01e-6,"MEAN_MOTION_DDOT":0},{"OBJECT_NAME":"ONEWEB-0622","OBJECT_ID":"2023-004Z","EPOCH":"2025-08-12T00:22:54.223968","MEAN_MOTION":13.11415659,"ECCENTRICITY":0.0001448,"INCLINATION":87.8787,"RA_OF_ASC_NODE":82.6893,"ARG_OF_PERICENTER":110.3067,"MEAN_ANOMALY":249.8217,"EPHEMERIS_TYPE":0,"CLASSIFICATION_TYPE":"U","NORAD_CAT_ID":55163,"ELEMENT_SET_NO":999,"REV_AT_EPOCH":12528,"BSTAR":-0.0015425,"MEAN_MOTION_DOT":-5.34e-6,"MEAN_MOTION_DDOT":0},{"OBJECT_NAME":"ONEWEB-0623","OBJECT_ID":"2023-004AA","EPOCH":"2025-08-11T22:59:25.450944","MEAN_MOTION":13.1765132,"ECCENTRICITY":0.0001942,"INCLINATION":87.9025,"RA_OF_ASC_NODE":67.4305,"ARG_OF_PERICENTER":109.4272,"MEAN_ANOMALY":250.707,"EPHEMERIS_TYPE":0,"CLASSIFICATION_TYPE":"U","NORAD_CAT_ID":55164,"ELEMENT_SET_NO":999,"REV_AT_EPOCH":12686,"BSTAR":6.7235e-5,"MEAN_MOTION_DOT":3.9e-7,"MEAN_MOTION_DDOT":0},{"OBJECT_NAME":"ONEWEB-0624","OBJECT_ID":"2023-004AB","EPOCH":"2025-08-11T22:30:19.859040","MEAN_MOTION":13.12942623,"ECCENTRICITY":0.0001789,"INCLINATION":87.885,"RA_OF_ASC_NODE":52.1195,"ARG_OF_PERICENTER":90.4118,"MEAN_ANOMALY":269.7215,"EPHEMERIS_TYPE":0,"CLASSIFICATION_TYPE":"U","NORAD_CAT_ID":55165,"ELEMENT_SET_NO":999,"REV_AT_EPOCH":12749,"BSTAR":-0.0012075,"MEAN_MOTION_DOT":-4.25e-6,"MEAN_MOTION_DDOT":0},{"OBJECT_NAME":"ONEWEB-0625","OBJECT_ID":"2023-004AC","EPOCH":"2025-08-11T22:44:51.460512","MEAN_MOTION":13.17649483,"ECCENTRICITY":0.0001871,"INCLINATION":87.9024,"RA_OF_ASC_NODE":67.4297,"ARG_OF_PERICENTER":82.6413,"MEAN_ANOMALY":277.4932,"EPHEMERIS_TYPE":0,"CLASSIFICATION_TYPE":"U","NORAD_CAT_ID":55166,"ELEMENT_SET_NO":999,"REV_AT_EPOCH":12685,"BSTAR":2.7485e-5,"MEAN_MOTION_DOT":2.4e-7,"MEAN_MOTION_DDOT":0},{"OBJECT_NAME":"ONEWEB-0626","OBJECT_ID":"2023-004AD","EPOCH":"2025-08-11T22:30:16.536096","MEAN_MOTION":13.17649514,"ECCENTRICITY":0.000136,"INCLINATION":87.9025,"RA_OF_ASC_NODE":67.4303,"ARG_OF_PERICENTER":72.0664,"MEAN_ANOMALY":288.0616,"EPHEMERIS_TYPE":0,"CLASSIFICATION_TYPE":"U","NORAD_CAT_ID":55167,"ELEMENT_SET_NO":999,"REV_AT_EPOCH":12685,"BSTAR":0.00026989,"MEAN_MOTION_DOT":1.18e-6,"MEAN_MOTION_DDOT":0}]
