ONEWEB-0572             
1 55151U 23004M   25223.92756219 -.00000473  00000+0 -12505-2 0  9991
2 55151  87.9029  67.4092 0001490  87.6623 272.4679 13.17648494126753
ONEWEB-0573             
1 55152U 23004N   25223.91758588  .00000006  00000+0 -17925-4 0  9996
2 55152  87.9115  36.9369 0000937 100.2962 259.8276 13.18687044128930
ONEWEB-0588             
1 55153U 23004P   25223.91099281  .00000010  00000+0 -84133-5 0  9996
2 55153  87.9122  36.9229 0001447 103.5485 256.5808 13.18686669128934
ONEWEB-0598             
1 55154U 23004Q   25224.08203537 -.00000102  00000+0 -32380-3 0  9995
2 55154  87.8787  82.6869 0001386  62.8885 297.2384 13.11414387125399
ONEWEB-0599             
1 55155U 23004R   25223.88875619 -.00000012  00000+0 -65005-4 0  9990
2 55155  87.9032  67.4213 0001765  79.2925 280.8405 13.17650556126755
ONEWEB-0614             
1 55156U 23004S   25223.84806371  .00000054  00000+0  11664-3 0  9991
2 55156  87.8790  82.7435 0001732  93.9216 266.2110 13.11413945125294
ONEWEB-0616             
1 55157U 23004T   25223.93095017 -.00000070  00000+0 -21395-3 0  9991
2 55157  87.9034  67.4037 0002591  68.8129 291.3280 13.17647672126978
ONEWEB-0617             
1 55158U 23004U   25223.83620033  .00000513  00000+0  14102-2 0  9990
2 55158  87.8787  82.7244 0001495  92.4304 267.6995 13.11415080125319
ONEWEB-0618             
1 55159U 23004V   25223.74340913  .00001470  00000+0  25244-3 0  9990
2 55159  86.9103 301.8800 0014333   3.1388 356.9914 14.67962537135715
ONEWEB-0619             
1 55160U 23004W   25224.03894103  .00000047  00000+0  86859-4 0  9999
2 55160  87.9028  67.3577 0002226  93.6722 266.4664 13.17649972126887
ONEWEB-0620             
1 55161U 23004X   25223.90741273  .00000528  00000+0  14538-2 0  9991
2 55161  87.8790  82.7316 0001494  80.5903 279.5394 13.11416012125297
ONEWEB-0621             
1 55162U 23004Y   25224.08712693 -.00000301  00000+0 -88564-3 0  9998
2 55162  87.8795  82.6525 0001863  89.4617 270.6725 13.11415103125328
ONEWEB-0622             
1 55163U 23004Z   25224.01590537 -.00000534  00000+0 -15425-2 0  9996
2 55163  87.8787  82.6893 0001448 110.3067 249.8217 13.11415659125285
ONEWEB-0623             
1 55164U 23004AA  25223.95793346  .00000039  00000+0  67235-4 0  9998
2 55164  87.9025  67.4305 0001942 109.4272 250.7070 13.17651320126863
ONEWEB-0624             
1 55165U 23004AB  25223.93772985 -.00000425  00000+0 -12075-2 0  9994
2 55165  87.8850  52.1195 0001789  90.4118 269.7215 13.12942623127499
ONEWEB-0625             
1 55166U 23004AC  25223.94781783  .00000024  00000+0  27485-4 0  9998
2 55166  87.9024  67.4297 0001871  82.6413 277.4932 13.17649483126853
ONEWEB-0626             
1 55167U 23004AD  25223.93769139  .00000118  00000+0  26989-3 0  9990
2 55167  87.9025  67.4303 0001360  72.0664 288.0616 13.17649514126859
